satname,norad_id,inclination_deg,eccentricity,mean_motion_rev_per_day,perigee_km,apogee_km,l1,l2
STARLINK-1407,45703,53.0424,0.0009796,15.36804083,448.8728188741634,462.2614119771051,1 45703U 20035AY  25281.49789324  .00079131  00000+0  21533-2 0  9999,2 45703  53.0424 323.7558 0009796 317.7370  42.2877 15.36804083296725
STARLINK-1411,45706,53.0555,0.0001306,15.33852386,463.4377222775638,465.2249750102301,1 45706U 20035BB  25281.48367220  .00166947  00000+0  49276-2 0  9994,2 45706  53.0555 350.6729 0001306  45.7288 314.3820 15.33852386296331
STARLINK-1423,45710,53.0575,0.0001717,15.06397142,546.0312334591163,548.4094011618809,1 45710U 20035BF  25281.50055421  .00002694  00000+0  19971-3 0  9997,2 45710  53.0575 359.8275 0001717  94.1213 265.9972 15.06397142296217
STARLINK-1433,45711,53.0553,0.0001391,15.06396229,546.2597979421935,548.186433126335,1 45711U 20035BG  25281.48212400  .00001750  00000+0  13638-3 0  9993,2 45711  53.0553 359.9068 0001391  88.1632 271.9517 15.06396229296207
STARLINK-1434,45712,53.0537,0.0001396,15.13330165,525.0888722262998,527.0165219897326,1 45712U 20035BH  25281.63220824  .00024883  00000+0  13923-2 0  9998,2 45712  53.0537 356.6662 0001396 343.0346  17.0599 15.13330165296275
STARLINK-1465,45731,53.0538,0.0001194,15.06404236,546.3716901711132,548.0254603064795,1 45731U 20038B   25281.78067454  .00002354  00000+0  17685-3 0  9995,2 45731  53.0538 198.5638 0001194  88.0883 272.0243 15.06404236293292
STARLINK-1471,45735,53.0496,0.0003671,15.3971855,444.435423521335,449.44639572257984,1 45735U 20038F   25281.64894880  .00021999  00000+0  55646-3 0  9990,2 45735  53.0496 144.9083 0003671 112.3582 247.7811 15.39718550294044
STARLINK-1474,45738,53.0371,0.0005151,15.62848007,375.95413533962073,382.9157859734896,1 45738U 20038J   25280.25607219  .00065143  00000+0  70860-3 0  9991,2 45738  53.0371 113.1504 0005151 177.5648 182.5392 15.62848007294368
STARLINK-1475,45739,53.0534,0.0003249,15.66538389,366.62591055813755,371.0100819146928,1 45739U 20038K   25281.76074620  .00225962  00000+0  20706-2 0  9993,2 45739  53.0534  73.3810 0003249 183.7328 176.3663 15.66538389295060
STARLINK-1480,45741,53.0529,0.0001779,15.0639616,545.9913054080416,548.4553486123905,1 45741U 20038M   25281.76224365  .00000326  00000+0  40778-4 0  9997,2 45741  53.0529 198.6496 0001779  93.1901 266.9292 15.06396160293307
STARLINK-1500,45744,53.0412,0.0005195,15.26413308,482.9786143793881,490.111018786818,1 45744U 20038Q   25281.72062823  .00022214  00000+0  85239-3 0  9995,2 45744  53.0412 180.9431 0005195 119.5738 240.5777 15.26413308293549
STARLINK-1504,45746,53.0277,0.0006548,15.36719171,451.3439714262786,460.29372000182593,1 45746U 20038S   25281.77238072  .00080902  00000+0  22085-2 0  9990,2 45746  53.0277 147.2340 0006548 100.1848 259.9893 15.36719171294010
STARLINK-1506,45747,53.0496,0.0004791,15.20562973,500.84406077539916,507.4386599002746,1 45747U 20038T   25281.45552510  .00011531  00000+0  53384-3 0  9991,2 45747  53.0496 183.6696 0004791 141.3949 218.7390 15.20562973293483
STARLINK-1464,45751,53.0534,0.0001181,15.06416673,546.3425804361477,547.9783356957423,1 45751U 20038X   25281.43234925  .00009482  00000+0  65431-3 0  9999,2 45751  53.0534 180.1288 0001181  93.5956 266.5168 15.06416673293535
STARLINK-1477,45754,53.0528,0.0002313,15.06450287,545.4556423393351,548.6592372871928,1 45754U 20038AA  25281.71246135  .00018146  00000+0  12323-2 0  9997,2 45754  53.0528 178.8700 0002313  96.3672 263.7580 15.06450287293578
STARLINK-1478,45755,53.0535,0.0001278,15.06384346,546.3744699319104,548.1446012864126,1 45755U 20038AB  25281.73092897  .00000885  00000+0  78345-4 0  9993,2 45755  53.0535 178.7900 0001278  79.1984 280.9149 15.06384346293565
STARLINK-1484,45756,53.0174,0.0003737,15.56466068,395.36209322400373,400.42649901472305,1 45756U 20038AC  25281.81507942  .00063430  00000+0  87992-3 0  9997,2 45756  53.0174  92.5201 0003737 157.6886 202.4287 15.56466068294781
STARLINK-1493,45759,53.0514,7.26e-05,15.06409673,546.6791335920916,547.6846898980766,1 45759U 20038AF  25281.45445770  .00005632  00000+0  39657-3 0  9995,2 45759  53.0514 180.0309 0000726  63.7261 296.3803 15.06409673293524
STARLINK-1494,45760,53.0536,8.12e-05,15.4747712,423.5569138600513,424.66159865206646,1 45760U 20038AG  25281.71438469  .00360049  00000+0  65949-2 0  9991,2 45760  53.0536 171.0438 0000812 133.1411 226.9664 15.47477120293686
STARLINK-1502,45764,53.0546,0.0001997,15.06406612,545.8083051245549,548.5742812448525,1 45764U 20038AL  25281.42129539  .00002741  00000+0  20283-3 0  9993,2 45764  53.0546 180.1758 0001997  85.6764 274.4453 15.06406612293535
STARLINK-1470,45772,53.0481,0.0005264,15.15979663,514.3758590890375,521.6361184276029,1 45772U 20038AU  25281.04074940  .00020337  00000+0  10596-2 0  9991,2 45772  53.0481 156.0731 0005264 122.0713 238.0792 15.15979663293832
STARLINK-1482,45773,53.0473,0.0002656,15.06395242,545.3867641112502,549.0655170115169,1 45773U 20038AV  25281.65167373  .00003669  00000+0  26510-3 0  9995,2 45773  53.0473 159.1448 0002656  86.3778 273.7515 15.06395242293843
STARLINK-1485,45774,53.0445,0.0001522,15.87826077,307.36130845271055,309.3966839219511,1 45774U 20038AW  25281.76798514  .00423248  00000+0  14684-2 0  9992,2 45774  53.0445 101.1617 0001522 171.7733 188.3317 15.87826077294665
STARLINK-1496,45780,53.0533,4.99e-05,15.06411169,546.8317535885035,547.522899958316,1 45780U 20038BC  25281.68483285 -.00001274  00000+0 -66682-4 0  9996,2 45780  53.0533 158.9967 0000499   2.0730 358.0261 15.06411169293838
STARLINK-1497,45781,53.0411,0.0012645,15.46774749,417.5642661459806,434.77235427550295,1 45781U 20038BD  25281.55063247  .00072324  00000+0  14119-2 0  9993,2 45781  53.0411 112.1563 0012645 135.3492 224.8535 15.46774749294496
STARLINK-1510,45784,53.0396,0.0008229,15.61518808,377.705251123225,388.83317346741933,1 45784U 20038BG  25281.85822050  .00240522  00000+0  26779-2 0  9996,2 45784  53.0396  89.3814 0008229 104.3648 255.8279 15.61518808294844
STARLINK-1513,45786,53.0499,0.0001166,15.06404149,546.3913477208662,548.0063360391914,1 45786U 20038BJ  25281.38258051  .00002339  00000+0  17581-3 0  9994,2 45786  53.0499 160.3513 0001166  86.8001 273.3121 15.06404149293803
STARLINK-1522,46027,53.0513,0.0002073,15.06407739,545.7522192802926,548.623458958592,1 46027U 20055A   25281.49592601 -.00000523  00000+0 -16187-4 0  9993,2 46027  53.0513  89.8383 0002073 105.4975 254.6244 15.06407739285947
